NORAD_CAT_ID,OBJECT_NAME,OBJECT_TYPE,EPOCH,MEAN_MOTION,ECCENTRICITY,INCLINATION,RA_OF_ASC_NODE,ARG_OF_PERICENTER,MEAN_ANOMALY,BSTAR,MEAN_MOTION_DOT,MEAN_MOTION_DDOT,TLE_LINE0,TLE_LINE1,TLE_LINE2,SEMIMAJOR_AXIS,PERIOD,APOGEE,PERIGEE,DECAYED
55956.0,STARLINK-5883,PAYLOAD,2023-05-20 01:19:11,15.69934738,0.0004062,69.9973,3.1194,265.8797,94.1934,9.1631e-06,8.89e-06,0.0,0 STARLINK-5883,1 55956U 23037AU  23140.05499763  .00000889  00000-0  91631-5 0  9998,2 55956  69.9973   3.1194 0004062 265.8797  94.1934 15.69934738 10465,6737.221,91.724,361.822,356.349,0.0
55956.0,STARLINK-5883,PAYLOAD,2023-05-20 21:11:58,15.69921176,0.0003817,69.9978,0.7906,267.4977,92.5782,8.3293e-07,-1.13e-06,0.0,0 STARLINK-5883,1 55956U 23037AU  23140.88331890 -.00000113  00000-0  83293-6 0  9992,2 55956  69.9978   0.7906 0003817 267.4977  92.5782 15.69921176 10251,6737.26,91.724,361.696,356.553,0.0
55956.0,STARLINK-5883,PAYLOAD,2023-05-21 00:15:30,15.69904187,0.0003721,69.9972,0.4309,269.5749,90.502,-1.7556e-05,-2.322e-05,0.0,0 STARLINK-5883,1 55956U 23037AU  23141.01076704 -.00002322  00000-0 -17556-4 0  9990,2 55956  69.9972   0.4309 0003721 269.5749  90.5020 15.69904187 10619,6737.308,91.725,361.68,356.666,0.0
55956.0,STARLINK-5883,PAYLOAD,2023-05-21 14:01:17,15.69909435,0.0003941,69.9966,358.8203,267.4233,92.6512,-2.4381e-05,-3.142e-05,0.0,0 STARLINK-5883,1 55956U 23037AU  23141.58422524 -.00003142  00000-0 -24381-4 0  9992,2 55956  69.9966 358.8203 0003941 267.4233  92.6512 15.69909435 10366,6737.293,91.725,361.813,356.503,0.0
55956.0,STARLINK-5883,PAYLOAD,2023-05-21 18:36:31,15.69928574,0.0003817,69.9977,358.2821,268.1671,91.9088,-2.9334e-06,-5.66e-06,0.0,0 STARLINK-5883,1 55956U 23037AU  23141.77536034 -.00000566  00000-0 -29334-5 0  9996,2 55956  69.9977 358.2821 0003817 268.1671  91.9088 15.69928574 10392,6737.238,91.724,361.675,356.532,0.0
55956.0,STARLINK-5883,PAYLOAD,2023-05-21 23:11:45,15.69938109,0.0003972,69.9977,357.7439,266.2408,93.8333,8.3214e-06,7.88e-06,0.0,0 STARLINK-5883,1 55956U 23037AU  23141.96650082  .00000788  00000-0  83214-5 0  9998,2 55956  69.9977 357.7439 0003972 266.2408  93.8333 15.69938109 10760,6737.211,91.723,361.752,356.4,0.0
55956.0,STARLINK-5883,PAYLOAD,2023-05-22 16:01:02,15.69923134,0.0003947,69.9968,355.7745,265.3128,94.7617,1.4899e-05,1.579e-05,0.0,0 STARLINK-5883,1 55956U 23037AU  23142.66738660  .00001579  00000-0  14899-4 0  9996,2 55956  69.9968 355.7745 0003947 265.3128  94.7617 15.69923134 10878,6737.254,91.724,361.778,356.46,0.0
55956.0,STARLINK-5883,PAYLOAD,2023-05-22 20:36:17,15.6992352,0.0003962,69.9975,355.2371,268.1,91.9742,1.3362e-05,1.394e-05,0.0,0 STARLINK-5883,1 55956U 23037AU  23142.85853793  .00001394  00000-0  13362-4 0  9991,2 55956  69.9975 355.2371 0003962 268.1000  91.9742 15.69923520 10566,6737.253,91.724,361.787,356.449,0.0
55956.0,STARLINK-5883,PAYLOAD,2023-05-22 23:39:48,15.69919508,0.0004012,69.9973,354.8788,268.0071,92.0665,8.9956e-06,8.68e-06,0.0,0 STARLINK-5883,1 55956U 23037AU  23142.98597547  .00000868  00000-0  89956-5 0  9995,2 55956  69.9973 354.8788 0004012 268.0071  92.0665 15.69919508 10922,6737.264,91.724,361.832,356.426,0.0
55956.0,STARLINK-5883,PAYLOAD,2023-05-23 16:29:04,15.69926271,0.0003503,69.9975,352.9068,273.4941,86.5854,4.4785e-06,3.26e-06,0.0,0 STARLINK-5883,1 55956U 23037AU  23143.68686050  .00000326  00000-0  44785-5 0  9991,2 55956  69.9975 352.9068 0003503 273.4941  86.5854 15.69926271 10691,6737.245,91.724,361.47,356.75,0.0
55956.0,STARLINK-5883,PAYLOAD,2023-05-24 00:07:50,15.69923716,0.0003754,70.0,352.0126,272.6342,87.4424,8.8542e-07,-1.07e-06,0.0,0 STARLINK-5883,1 55956U 23037AU  23144.00544563 -.00000107  00000-0  88542-6 0  9998,2 55956  70.0000 352.0126 0003754 272.6342  87.4424 15.69923716 11081,6737.252,91.724,361.646,356.588,0.0
55956.0,STARLINK-5883,PAYLOAD,2023-05-24 15:25:21,15.69925766,0.0004116,70.0001,350.2205,281.7473,78.3261,-6.8745e-06,-1.04e-05,0.0,0 STARLINK-5883,1 55956U 23037AU  23144.64261346 -.00001040  00000-0 -68745-5 0  9993,2 55956  70.0001 350.2205 0004116 281.7473  78.3261 15.69925766 10847,6737.246,91.724,361.884,356.338,0.0
55956.0,STARLINK-5883,PAYLOAD,2023-05-25 15:53:23,15.69932415,0.0003663,69.9968,347.3537,270.1997,89.8779,-1.6591e-05,-2.208e-05,0.0,0 STARLINK-5883,1 55956U 23037AU  23145.66207860 -.00002208  00000-0 -16591-4 0  9995,2 55956  69.9968 347.3537 0003663 270.1997  89.8779 15.69932415 11346,6737.227,91.724,361.56,356.625,0.0
55956.0,STARLINK-5883,PAYLOAD,2023-05-25 22:00:23,15.69930439,0.0003581,69.9974,346.6372,270.4262,89.6524,-9.0984e-06,-1.307e-05,0.0,0 STARLINK-5883,1 55956U 23037AU  23145.91694336 -.00001307  00000-0 -90984-5 0  9999,2 55956  69.9974 346.6372 0003581 270.4262  89.6524 15.69930439 11046,6737.233,91.724,361.511,356.685,0.0
55956.0,STARLINK-5883,PAYLOAD,2023-05-26 13:17:55,15.69926436,0.0003649,69.9963,344.8453,272.8268,87.251,-5.8244e-06,-9.13e-06,0.0,0 STARLINK-5883,1 55956U 23037AU  23146.55411454 -.00000913  00000-0 -58244-5 0  9993,2 55956  69.9963 344.8453 0003649 272.8268  87.2510 15.69926436 11143,6737.244,91.724,361.568,356.651,0.0
55956.0,STARLINK-5883,PAYLOAD,2023-05-26 16:21:25,15.69928913,0.0003585,69.9966,344.4866,273.3007,86.7779,-2.4262e-06,-5.05e-06,0.0,0 STARLINK-5883,1 55956U 23037AU  23146.68154544 -.00000505  00000-0 -24262-5 0  9991,2 55956  69.9966 344.4866 0003585 273.3007  86.7779 15.69928913 11509,6737.237,91.724,361.518,356.687,0.0
55956.0,STARLINK-5883,PAYLOAD,2023-05-26 20:56:40,15.69928024,0.0003315,69.9981,343.9507,270.1189,89.9627,4.0059e-06,2.69e-06,0.0,0 STARLINK-5883,1 55956U 23037AU  23146.87269363  .00000269  00000-0  40059-5 0  9995,2 55956  69.9981 343.9507 0003315 270.1189  89.9627 15.69928024 11194,6737.24,91.724,361.338,356.872,0.0
55956.0,STARLINK-5883,PAYLOAD,2023-05-27 06:07:12,15.69917016,0.0003314,69.9976,342.8742,277.7484,82.3335,8.028e-06,7.52e-06,0.0,0 STARLINK-5883,1 55956U 23037AU  23147.25500148  .00000752  00000-0  80280-5 0  9994,2 55956  69.9976 342.8742 0003314 277.7484  82.3335 15.69917016 11593,6737.271,91.725,361.369,356.904,0.0
55956.0,STARLINK-5883,PAYLOAD,2023-05-27 21:24:43,15.69921004,0.0003246,69.9975,341.0836,271.9401,88.1423,2.5638e-06,9.6e-07,0.0,0 STARLINK-5883,1 55956U 23037AU  23147.89216793  .00000096  00000-0  25638-5 0  9991,2 55956  69.9975 341.0836 0003246 271.9401  88.1423 15.69921004 11354,6737.26,91.724,361.312,356.938,0.0
55956.0,STARLINK-5883,PAYLOAD,2023-05-27 22:56:28,15.69922105,0.0003326,69.9976,340.9047,273.4321,86.6495,3.317e-06,1.86e-06,0.0,0 STARLINK-5883,1 55956U 23037AU  23147.95588383  .00000186  00000-0  33170-5 0  9995,2 55956  69.9976 340.9047 0003326 273.4321  86.6495 15.69922105 11360,6737.257,91.724,361.363,356.881,0.0
55956.0,STARLINK-5883,PAYLOAD,2023-05-28 15:45:44,15.69929096,0.0003286,69.9975,338.934,273.6973,86.3847,7.5859e-06,7e-06,0.0,0 STARLINK-5883,1 55956U 23037AU  23148.65676189  .00000700  00000-0  75859-5 0  9997,2 55956  69.9975 338.9340 0003286 273.6973  86.3847 15.69929096 11816,6737.237,91.724,361.316,356.888,0.0
55956.0,STARLINK-5883,PAYLOAD,2023-05-28 21:52:44,15.69929247,0.0003402,69.9971,338.2186,268.1478,91.9328,-3.8376e-07,-2.59e-06,0.0,0 STARLINK-5883,1 55956U 23037AU  23148.91162931 -.00000259  00000-0 -38376-6 0  9996,2 55956  69.9971 338.2186 0003402 268.1478  91.9328 15.69929247 11513,6737.236,91.724,361.393,356.809,0.0
55956.0,STARLINK-5883,PAYLOAD,2023-05-29 05:31:31,15.69908429,0.0003216,69.9973,337.3227,270.0696,90.0131,-4.279e-06,-7.27e-06,0.0,0 STARLINK-5883,1 55956U 23037AU  23149.23022816 -.00000727  00000-0 -42790-5 0  9993,2 55956  69.9973 337.3227 0003216 270.0696  90.0131 15.69908429 11902,6737.296,91.725,361.328,356.994,0.0
55956.0,STARLINK-5883,PAYLOAD,2023-05-29 14:42:02,15.69914763,0.0003548,69.9971,336.2457,277.0764,83.0028,5.5022e-07,-1.47e-06,0.0,0 STARLINK-5883,1 55956U 23037AU  23149.61252485 -.00000147  00000-0  55022-6 0  9990,2 55956  69.9971 336.2457 0003548 277.0764  83.0028 15.69914763 11628,6737.278,91.725,361.533,356.752,0.0
55956.0,STARLINK-5883,PAYLOAD,2023-05-29 16:13:47,15.69913887,0.0003577,69.9971,336.0645,284.0726,76.0072,4.6301e-06,3.44e-06,0.0,0 STARLINK-5883,1 55956U 23037AU  23149.67624122  .00000344  00000-0  46301-5 0  9994,2 55956  69.9971 336.0645 0003577 284.0726  76.0072 15.69913887 11978,6737.28,91.725,361.555,356.735,0.0
55956.0,STARLINK-5883,PAYLOAD,2023-05-29 20:49:01,15.69928238,0.000347,69.9968,335.5298,273.397,86.6828,8.2438e-06,7.79e-06,0.0,0 STARLINK-5883,1 55956U 23037AU  23149.86738173  .00000779  00000-0  82438-5 0  9990,2 55956  69.9968 335.5298 0003470 273.3970  86.6828 15.69928238 11664,6737.239,91.724,361.442,356.766,0.0
55956.0,STARLINK-5883,PAYLOAD,2023-05-29 22:20:46,15.69928359,0.0003466,69.9969,335.3502,274.4369,85.6431,8.8853e-06,8.56e-06,0.0,0 STARLINK-5883,1 55956U 23037AU  23149.93109828  .00000856  00000-0  88853-5 0  9990,2 55956  69.9969 335.3502 0003466 274.4369  85.6431 15.69928359 12013,6737.239,91.724,361.439,356.769,0.0
55956.0,STARLINK-5883,PAYLOAD,2023-05-30 12:06:33,15.69927484,0.0003361,69.9969,333.7381,270.7979,89.2831,4.2305e-06,2.96e-06,0.0,0 STARLINK-5883,1 55956U 23037AU  23150.50454914  .00000296  00000-0  42305-5 0  9994,2 55956  69.9969 333.7381 0003361 270.7979  89.2831 15.69927484 11763,6737.241,91.724,361.371,356.842,0.0
55956.0,STARLINK-5883,PAYLOAD,2023-05-30 21:17:04,15.69921857,0.0003375,69.9977,332.6631,274.1577,85.9233,7.5547e-06,6.96e-06,0.0,0 STARLINK-5883,1 55956U 23037AU  23150.88685188  .00000696  00000-0  75547-5 0  9992,2 55956  69.9977 332.6631 0003375 274.1577  85.9233 15.69921857 11829,6737.258,91.724,361.396,356.849,0.0
55956.0,STARLINK-5883,PAYLOAD,2023-05-31 14:06:20,15.6992146,0.0003404,69.9978,330.6929,276.0709,84.0099,3.6129e-06,2.22e-06,0.0,0 STARLINK-5883,1 55956U 23037AU  23151.58773828  .00000222  00000-0  36129-5 0  9997,2 55956  69.9978 330.6929 0003404 276.0709  84.0099 15.69921460 11931,6737.259,91.724,361.417,356.83,0.0
